H1 CPF  1  DLR 2022 10 12 10  7852 technosat            
H2  1704205 6203    42829 2022 10 12 04 00 00 2022 10 19 04 00 00    60 1 1  0 0 0
H9
10 0 59865  50400.000000  0       -266196.120      -5566040.970      -4181761.675
10 0 59865  50460.000000  0       -376894.058      -5817257.524      -3814612.395
10 0 59865  50520.000000  0       -488087.774      -6042951.605      -3431246.804
10 0 59865  50580.000000  0       -599079.305      -6242155.560      -3033286.745
10 0 59865  50640.000000  0       -709163.167      -6414019.607      -2622418.383
10 0 59865  50700.000000  0       -817630.456      -6557815.934      -2200385.023
10 0 59865  50760.000000  0       -923773.000      -6672942.197      -1768979.567
10 0 59865  50820.000000  0      -1026887.553      -6758924.384      -1330036.728
10 0 59865  50880.000000  0      -1126279.982      -6815419.096       -885425.002
10 0 59865  50940.000000  0      -1221269.459      -6842215.147       -437038.444
10 0 59865  51000.000000  0      -1311192.582      -6839234.531         13211.687
10 0 59865  51060.000000  0      -1395407.458      -6806532.742        463405.381
10 0 59865  51120.000000  0      -1473297.684      -6744298.425        911622.413
10 0 59865  51180.000000  0      -1544276.202      -6652852.355       1355950.884
10 0 59865  51240.000000  0      -1607789.001      -6532645.757       1794495.739
10 0 59865  51300.000000  0      -1663318.636      -6384257.957       2225387.195
10 0 59865  51360.000000  0      -1710387.552      -6208393.390       2646789.027
10 0 59865  51420.000000  0      -1748561.196      -6005877.991       3056906.649
10 0 59865  51480.000000  0      -1777450.882      -5777655.014       3453994.986
10 0 59865  51540.000000  0      -1796716.364      -5524780.291       3836366.064
10 0 59865  51600.000000  0      -1806068.158      -5248416.957       4202396.253
10 0 59865  51660.000000  0      -1805269.611      -4949829.764       4550533.165
10 0 59865  51720.000000  0      -1794138.694      -4630378.966       4879302.241
10 0 59865  51780.000000  0      -1772549.508      -4291513.788       5187312.983
10 0 59865  51840.000000  0      -1740433.468      -3934765.453       5473264.803
10 0 59865  51900.000000  0      -1697780.160      -3561739.840       5735952.330
10 0 59865  51960.000000  0      -1644637.860      -3174109.946       5974270.239
10 0 59865  52020.000000  0      -1581113.748      -2773608.127       6187217.628
10 0 59865  52080.000000  0      -1507373.823      -2362018.191       6373901.926
10 0 59865  52140.000000  0      -1423642.518      -1941167.349       6533542.385
10 0 59865  52200.000000  0      -1330202.043      -1512917.982       6665473.136
10 0 59865  52260.000000  0      -1227391.428      -1079159.267       6769145.701
10 0 59865  52320.000000  0      -1115605.286       -641798.784       6844130.970
10 0 59865  52380.000000  0       -995292.292       -202754.181       6890120.726
10 0 59865  52440.000000  0       -866953.349        236055.160       6906928.776
10 0 59865  52500.000000  0       -731139.476        672716.502       6894491.602
10 0 59865  52560.000000  0       -588449.399       1105332.042       6852868.475
10 0 59865  52620.000000  0       -439526.906       1532027.083       6782241.101
10 0 59865  52680.000000  0       -285057.943       1950958.099       6682912.810
10 0 59865  52740.000000  0       -125767.458       2360320.642       6555307.226
10 0 59865  52800.000000  0         37583.959       2758356.997       6399966.499
10 0 59865  52860.000000  0        204203.629       3143363.692       6217549.135
10 0 59865  52920.000000  0        373270.548       3513698.809       6008827.323
10 0 59865  52980.000000  0        543939.337       3867789.005       5774683.789
10 0 59865  53040.000000  0        715344.373       4204136.210       5516108.215
10 0 59865  53100.000000  0        886604.076       4521324.054       5234193.267
10 0 59865  53160.000000  0       1056825.336       4818023.973       4930130.129
10 0 59865  53220.000000  0       1225108.041       5093000.915       4605203.563
10 0 59865  53280.000000  0       1390549.652       5345118.546       4260786.643
10 0 59865  53340.000000  0       1552249.841       5573344.098       3898335.216
10 0 59865  53400.000000  0       1709315.306       5776752.922       3519382.040
10 0 59865  53460.000000  0       1860864.717       5954532.596       3125530.203
10 0 59865  53520.000000  0       2006033.337       6105986.241       2718446.191
10 0 59865  53580.000000  0       2143977.679       6230535.451       2299852.952
10 0 59865  53640.000000  0       2273880.247       6327722.730       1871522.528
10 0 59865  53700.000000  0       2394954.105       6397213.230       1435268.380
10 0 59865  53760.000000  0       2506447.279       6438795.886        992937.610
10 0 59865  53820.000000  0       2607647.030       6452384.015        546403.047
10 0 59865  53880.000000  0       2697883.974       6438015.354         97555.209
10 0 59865  53940.000000  0       2776536.002       6395851.525       -351705.833
10 0 59865  54000.000000  0       2843032.015       6326176.900       -799478.661
10 0 59865  54060.000000  0       2896855.388       6229396.852      -1243868.686
10 0 59865  54120.000000  0       2937547.185       6106035.472      -1682996.285
10 0 59865  54180.000000  0       2964709.082       5956732.748      -2115004.870
10 0 59865  54240.000000  0       2978006.019       5782241.199      -2538068.865
10 0 59865  54300.000000  0       2977168.524       5583421.961      -2950401.525
10 0 59865  54360.000000  0       2961994.692       5361240.357      -3350262.558
10 0 59865  54420.000000  0       2932351.806       5116760.989      -3735965.449
10 0 59865  54480.000000  0       2888177.635       4851142.459      -4105884.495
10 0 59865  54540.000000  0       2829481.369       4565631.723      -4458461.586
10 0 59865  54600.000000  0       2756344.187       4261558.030      -4792212.648
10 0 59865  54660.000000  0       2668919.491       3940326.575      -5105733.686
10 0 59865  54720.000000  0       2567432.822       3603411.901      -5397706.502
10 0 59865  54780.000000  0       2452181.419       3252351.009      -5666904.059
10 0 59865  54840.000000  0       2323533.410       2888736.236      -5912195.404
10 0 59865  54900.000000  0       2181926.655       2514207.967      -6132550.170
10 0 59865  54960.000000  0       2027867.248       2130447.198      -6327042.618
10 0 59865  55020.000000  0       1861927.741       1739168.037      -6494855.238
10 0 59865  55080.000000  0       1684745.086       1342110.127      -6635281.976
10 0 59865  55140.000000  0       1497018.239        941030.990      -6747731.017
10 0 59865  55200.000000  0       1299505.431        537698.387      -6831727.159
10 0 59865  55260.000000  0       1093021.121        133882.642      -6886913.741
10 0 59865  55320.000000  0        878432.677       -268651.048      -6913054.065
10 0 59865  55380.000000  0        656656.797       -668150.198      -6910032.318
10 0 59865  55440.000000  0        428655.699      -1062882.490      -6877854.089
10 0 59865  55500.000000  0        195433.078      -1451143.120      -6816646.432
10 0 59865  55560.000000  0        -41970.162      -1831261.986      -6726657.535
10 0 59865  55620.000000  0       -282480.455      -2201610.794      -6608256.024
10 0 59865  55680.000000  0       -524996.352      -2560610.077      -6461929.719
10 0 59865  55740.000000  0       -768393.475      -2906735.974      -6288283.821
10 0 59865  55800.000000  0      -1011529.592      -3238526.697      -6088038.671
10 0 59865  55860.000000  0      -1253249.871      -3554588.770      -5862027.125
10 0 59865  55920.000000  0      -1492392.285      -3853603.027      -5611191.458
10 0 59865  55980.000000  0      -1727793.146      -4134330.327      -5336579.822
10 0 59865  56040.000000  0      -1958292.741      -4395616.983      -5039342.203
10 0 59865  56100.000000  0      -2182741.057      -4636399.810      -4720725.892
10 0 59865  56160.000000  0      -2400003.543      -4855710.760      -4382070.497
10 0 59865  56220.000000  0      -2608966.867      -5052681.123      -4024802.510
10 0 59865  56280.000000  0      -2808544.636      -5226545.298      -3650429.482
10 0 59865  56340.000000  0      -2997683.073      -5376644.107      -3260533.794
10 0 59865  56400.000000  0      -3175366.613      -5502427.636      -2856766.050
10 0 59865  56460.000000  0      -3340623.393      -5603457.560      -2440838.102
10 0 59865  56520.000000  0      -3492530.601      -5679408.952      -2014515.737
10 0 59865  56580.000000  0      -3630219.625      -5730071.534      -1579611.046
10 0 59865  56640.000000  0      -3752880.970      -5755350.359      -1137974.518
10 0 59865  56700.000000  0      -3859768.900      -5755265.919       -691486.911
10 0 59865  56760.000000  0      -3950205.778      -5729953.659       -242050.953
10 0 59865  56820.000000  0      -4023586.102      -5679662.934        208417.068
10 0 59865  56880.000000  0      -4079380.184      -5604755.386        657995.827
10 0 59865  56940.000000  0      -4117137.474      -5505702.760       1104767.526
10 0 59865  57000.000000  0      -4136489.464      -5383084.131       1546826.458
10 0 59865  57060.000000  0      -4137152.156      -5237582.588       1982287.477
10 0 59865  57120.000000  0      -4118928.112      -5069981.419       2409294.331
10 0 59865  57180.000000  0      -4081708.069      -4881159.833       2826027.835
10 0 59865  57240.000000  0      -4025472.117      -4672088.241       3230713.859
10 0 59865  57300.000000  0      -3950290.417      -4443823.110       3621631.083
10 0 59865  57360.000000  0      -3856323.452      -4197501.424       3997118.480
10 0 59865  57420.000000  0      -3743821.819      -3934334.766       4355582.482
10 0 59865  57480.000000  0      -3613125.551      -3655603.066       4695503.740
10 0 59865  57540.000000  0      -3464663.043      -3362648.146       5015443.480
99
